NORAD_CAT_ID,OBJECT_NAME,OBJECT_TYPE,EPOCH,MEAN_MOTION,ECCENTRICITY,INCLINATION,RA_OF_ASC_NODE,ARG_OF_PERICENTER,MEAN_ANOMALY,BSTAR,MEAN_MOTION_DOT,MEAN_MOTION_DDOT,TLE_LINE0,TLE_LINE1,TLE_LINE2,SEMIMAJOR_AXIS,PERIOD,APOGEE,PERIGEE,DECAYED
53566.0,STARLINK-4576,PAYLOAD,2023-06-30 14:37:35,15.08836039,9.64e-05,53.215,147.3261,86.2908,273.8194,5.6084e-06,-1.98e-06,0.0,0 STARLINK-4576,1 53566U 22101AR  23181.60944121 -.00000198  00000-0  56084-5 0  9990,2 53566  53.2150 147.3261 0000964  86.2908 273.8194 15.08836039 48031,6917.892,95.438,540.424,539.091,0.0
53566.0,STARLINK-4576,PAYLOAD,2023-07-01 01:45:18,15.08799038,0.0001298,53.2158,145.2447,110.8993,249.2138,0.00028103,4.183e-05,0.0,0 STARLINK-4576,1 53566U 22101AR  23182.07313435  .00004183  00000-0  28103-3 0  9996,2 53566  53.2158 145.2447 0001298 110.8993 249.2138 15.08799038 48101,6918.006,95.44,540.769,538.973,0.0
53566.0,STARLINK-4576,PAYLOAD,2023-07-02 01:36:05,15.08838607,0.0001119,53.216,140.7844,85.1505,274.9615,3.8458e-05,3.24e-06,0.0,0 STARLINK-4576,1 53566U 22101AR  23183.06672574  .00000324  00000-0  38458-4 0  9996,2 53566  53.2160 140.7844 0001119  85.1505 274.9615 15.08838607 48257,6917.885,95.438,540.524,538.976,0.0
53566.0,STARLINK-4576,PAYLOAD,2023-07-03 06:13:01,15.08843384,0.0001133,53.216,135.4311,84.3396,275.7725,0.00015519,2.183e-05,0.0,0 STARLINK-4576,1 53566U 22101AR  23184.25903965  .00002183  00000-0  15519-3 0  9996,2 53566  53.2160 135.4311 0001133  84.3396 275.7725 15.08843384 48431,6917.87,95.437,540.519,538.951,0.0
53566.0,STARLINK-4576,PAYLOAD,2023-07-03 14:09:57,15.08839525,0.0001112,53.2158,133.9443,84.8388,275.2731,9.5346e-05,1.23e-05,0.0,0 STARLINK-4576,1 53566U 22101AR  23184.59024364  .00001230  00000-0  95346-4 0  9999,2 53566  53.2158 133.9443 0001112  84.8388 275.2731 15.08839525 48489,6917.882,95.438,540.516,538.978,0.0
53566.0,STARLINK-4576,PAYLOAD,2023-07-05 01:08:26,15.08838931,0.0001266,53.2151,127.4016,91.4209,268.6928,-2.7145e-05,-7.2e-06,0.0,0 STARLINK-4576,1 53566U 22101AR  23186.04752745 -.00000720  00000-0 -27145-4 0  9999,2 53566  53.2151 127.4016 0001266  91.4209 268.6928 15.08838931 48701,6917.884,95.438,540.624,538.873,0.0
53566.0,STARLINK-4576,PAYLOAD,2023-07-06 05:45:22,15.08838166,0.000131,53.2168,122.0482,94.4319,265.6823,2.9725e-05,1.85e-06,0.0,0 STARLINK-4576,1 53566U 22101AR  23187.23984766  .00000185  00000-0  29725-4 0  9990,2 53566  53.2168 122.0482 0001310  94.4319 265.6823 15.08838166 48882,6917.886,95.438,540.657,538.845,0.0
53566.0,STARLINK-4576,PAYLOAD,2023-07-07 11:57:42,15.08836376,0.0001203,53.217,116.4003,83.9054,276.2075,7.9274e-06,-1.62e-06,0.0,0 STARLINK-4576,1 53566U 22101AR  23188.49841186 -.00000162  00000-0  79274-5 0  9998,2 53566  53.2170 116.4003 0001203  83.9054 276.2075 15.08836376 49071,6917.891,95.438,540.589,538.924,0.0
53566.0,STARLINK-4576,PAYLOAD,2023-07-08 05:26:56,15.08846151,0.0001145,53.2166,113.1292,89.6468,270.4655,5.6601e-05,6.13e-06,0.0,0 STARLINK-4576,1 53566U 22101AR  23189.22704520  .00000613  00000-0  56601-4 0  9998,2 53566  53.2166 113.1292 0001145  89.6468 270.4655 15.08846151 49181,6917.862,95.437,540.519,538.934,0.0
53566.0,STARLINK-4576,PAYLOAD,2023-07-08 11:48:29,15.08838222,0.000104,53.216,111.9383,101.4815,258.6294,5.191e-06,-2.05e-06,0.0,0 STARLINK-4576,1 53566U 22101AR  23189.49201047 -.00000205  00000-0  51910-5 0  9990,2 53566  53.2160 111.9383 0001040 101.4815 258.6294 15.08838222 49227,6917.886,95.438,540.47,539.031,0.0
53566.0,STARLINK-4576,PAYLOAD,2023-07-09 03:42:21,15.08833738,0.0001321,53.2177,108.9672,82.3614,277.7528,-4.8231e-05,-1.055e-05,0.0,0 STARLINK-4576,1 53566U 22101AR  23190.15442030 -.00001055  00000-0 -48231-4 0  9990,2 53566  53.2177 108.9672 0001321  82.3614 277.7528 15.08833738 49328,6917.9,95.438,540.678,538.851,0.0
53566.0,STARLINK-4576,PAYLOAD,2023-07-10 03:33:08,15.08846761,0.0001234,53.2169,104.5059,89.099,271.0144,4.6726e-05,4.56e-06,0.0,0 STARLINK-4576,1 53566U 22101AR  23191.14801007  .00000456  00000-0  46726-4 0  9992,2 53566  53.2169 104.5059 0001234  89.0990 271.0144 15.08846761 49471,6917.86,95.437,540.578,538.871,0.0
53566.0,STARLINK-4576,PAYLOAD,2023-07-10 11:30:04,15.08840591,0.0001249,53.2168,103.019,85.8283,274.2852,2.6296e-06,-2.46e-06,0.0,0 STARLINK-4576,1 53566U 22101AR  23191.47921513 -.00000246  00000-0  26296-5 0  9992,2 53566  53.2168 103.0190 0001249  85.8283 274.2852 15.08840591 49527,6917.879,95.438,540.608,538.88,0.0
53566.0,STARLINK-4576,PAYLOAD,2023-07-12 03:14:42,15.08847495,0.0001143,53.217,95.5827,95.7403,264.3719,1.7e-05,-1.7e-07,0.0,0 STARLINK-4576,1 53566U 22101AR  23193.13520867 -.00000017  00000-0  17000-4 0  9992,2 53566  53.2170  95.5827 0001143  95.7403 264.3719 15.08847495 49778,6917.857,95.437,540.513,538.932,0.0
53566.0,STARLINK-4576,PAYLOAD,2023-07-12 17:33:10,15.08836209,0.0001137,53.2167,92.9057,96.372,263.7401,3.85e-07,-2.82e-06,0.0,0 STARLINK-4576,1 53566U 22101AR  23193.73137577 -.00000282  00000-0  38500-6 0  9994,2 53566  53.2167  92.9057 0001137  96.3720 263.7401 15.08836209 49864,6917.892,95.438,540.544,538.97,0.0
53566.0,STARLINK-4576,PAYLOAD,2023-07-13 23:45:30,15.0883984,0.0001163,53.2165,87.2569,86.3603,273.7522,-4.7102e-05,-1.037e-05,0.0,0 STARLINK-4576,1 53566U 22101AR  23194.98993707 -.00001037  00000-0 -47102-4 0  9993,2 53566  53.2165  87.2569 0001163  86.3603 273.7522 15.08839840 50057,6917.881,95.438,540.55,538.941,0.0
53566.0,STARLINK-4576,PAYLOAD,2023-07-15 01:11:40,15.0884441,0.0001126,53.2175,82.5017,85.2352,274.8769,9.9831e-05,1.302e-05,0.0,0 STARLINK-4576,1 53566U 22101AR  23196.04977127  .00001302  00000-0  99831-4 0  9999,2 53566  53.2175  82.5017 0001126  85.2352 274.8769 15.08844410 50214,6917.867,95.437,540.511,538.953,0.0
53566.0,STARLINK-4576,PAYLOAD,2023-07-16 02:37:51,15.08838239,0.0001019,53.2166,77.7417,83.7821,276.3287,3.0315e-05,1.95e-06,0.0,0 STARLINK-4576,1 53566U 22101AR  23197.10961963  .00000195  00000-0  30315-4 0  9999,2 53566  53.2166  77.7417 0001019  83.7821 276.3287 15.08838239 50370,6917.886,95.438,540.456,539.046,0.0
53566.0,STARLINK-4576,PAYLOAD,2023-07-16 08:59:24,15.08832046,0.0001066,53.2173,76.5525,82.9489,277.1625,-3.1425e-05,-7.88e-06,0.0,0 STARLINK-4576,1 53566U 22101AR  23197.37458637 -.00000788  00000-0 -31425-4 0  9990,2 53566  53.2173  76.5525 0001066  82.9489 277.1625 15.08832046 50418,6917.905,95.438,540.507,539.032,0.0
53566.0,STARLINK-4576,PAYLOAD,2023-07-16 18:31:42,15.08841144,9.84e-05,53.2167,74.7696,89.5951,270.5154,-4.214e-05,-9.58e-06,0.0,0 STARLINK-4576,1 53566U 22101AR  23197.77202293 -.00000958  00000-0 -42140-4 0  9994,2 53566  53.2167  74.7696 0000984  89.5951 270.5154 15.08841144 50474,6917.877,95.437,540.423,539.061,0.0
53566.0,STARLINK-4576,PAYLOAD,2023-07-18 00:44:01,15.08849916,0.0001054,53.217,69.1188,80.8421,279.269,0.00014645,2.044e-05,0.0,0 STARLINK-4576,1 53566U 22101AR  23199.03057149  .00002044  00000-0  14645-3 0  9997,2 53566  53.2170  69.1188 0001054  80.8421 279.2690 15.08849916 50664,6917.85,95.437,540.444,538.986,0.0
53566.0,STARLINK-4576,PAYLOAD,2023-07-18 19:48:40,15.08834782,0.0001236,53.2172,65.5503,85.5148,274.5985,2.7816e-06,-2.44e-06,0.0,0 STARLINK-4576,1 53566U 22101AR  23199.82546583 -.00000244  00000-0  27816-5 0  9996,2 53566  53.2172  65.5503 0001236  85.5148 274.5985 15.08834782 50780,6917.896,95.438,540.616,538.906,0.0
53566.0,STARLINK-4576,PAYLOAD,2023-07-19 02:10:12,15.08845984,0.0001081,53.2167,64.3601,94.6385,265.473,5.135e-05,5.3e-06,0.0,0 STARLINK-4576,1 53566U 22101AR  23200.09041674  .00000530  00000-0  51350-4 0  9995,2 53566  53.2167  64.3601 0001081  94.6385 265.4730 15.08845984 50820,6917.862,95.437,540.475,538.979,0.0
53566.0,STARLINK-4576,PAYLOAD,2023-07-19 18:04:04,15.08830836,0.0001142,53.2168,61.3875,92.1499,267.9624,-4.3505e-05,-9.8e-06,0.0,0 STARLINK-4576,1 53566U 22101AR  23200.75283092 -.00000980  00000-0 -43505-4 0  9994,2 53566  53.2168  61.3875 0001142  92.1499 267.9624 15.08830836 50928,6917.908,95.438,540.563,538.983,0.0
53566.0,STARLINK-4576,PAYLOAD,2023-07-20 19:30:13,15.08845133,0.000103,53.2171,56.628,103.6101,256.5006,5.9118e-05,6.53e-06,0.0,0 STARLINK-4576,1 53566U 22101AR  23201.81266026  .00000653  00000-0  59118-4 0  9992,2 53566  53.2171  56.6280 0001030 103.6101 256.5006 15.08845133 51085,6917.865,95.437,540.442,539.017,0.0
53566.0,STARLINK-4576,PAYLOAD,2023-07-20 21:05:36,15.08851753,9.24e-05,53.2169,56.3309,102.3815,257.728,0.00011706,1.576e-05,0.0,0 STARLINK-4576,1 53566U 22101AR  23201.87889450  .00001576  00000-0  11706-3 0  9995,2 53566  53.2169  56.3309 0000924 102.3815 257.7280 15.08851753 51093,6917.844,95.437,540.349,539.07,0.0
53566.0,STARLINK-4576,PAYLOAD,2023-07-21 14:34:51,15.08834153,9.89e-05,53.2175,53.0604,101.8135,258.2968,0.00013687,1.891e-05,0.0,0 STARLINK-4576,1 53566U 22101AR  23202.60754627  .00001891  00000-0  13687-3 0  9994,2 53566  53.2175  53.0604 0000989 101.8135 258.2968 15.08834153 51209,6917.898,95.438,540.447,539.079,0.0
53566.0,STARLINK-4576,PAYLOAD,2023-07-24 01:24:08,15.0884244,0.0001033,53.2178,42.0576,104.0919,256.0188,4.8972e-05,4.92e-06,0.0,0 STARLINK-4576,1 53566U 22101AR  23205.05842777  .00000492  00000-0  48972-4 0  9992,2 53566  53.2178  42.0576 0001033 104.0919 256.0188 15.08842440 52269,6917.873,95.437,540.453,539.023,0.0
53566.0,STARLINK-4576,PAYLOAD,2023-07-25 12:22:38,15.08830664,0.0001056,53.218,35.5147,97.2673,262.8439,6.5331e-05,7.52e-06,0.0,0 STARLINK-4576,1 53566U 22101AR  23206.51571845  .00000752  00000-0  65331-4 0  9996,2 53566  53.2180  35.5147 0001056  97.2673 262.8439 15.08830664 52481,6917.909,95.438,540.504,539.043,0.0
53566.0,STARLINK-4576,PAYLOAD,2023-07-25 20:19:33,15.08842484,0.0001022,53.2159,34.029,83.0489,277.062,3.0768e-05,2.02e-06,0.0,0 STARLINK-4576,1 53566U 22101AR  23206.84691327  .00000202  00000-0  30768-4 0  9996,2 53566  53.2159  34.0290 0001022  83.0489 277.0620 15.08842484 52530,6917.873,95.437,540.445,539.031,0.0
